[{"OBJECT_NAME":"ONEWEB-0392","OBJECT_ID":"2021-132D","EPOCH":"2025-11-24T06:44:14.995968","MEAN_MOTION":13.17650043,"ECCENTRICITY":0.0001534,"INCLINATION":87.9133,"RA_OF_ASC_NODE":46.5804,"ARG_OF_PERICENTER":113.7087,"MEAN_ANOMALY":246.4206,"EPHEMERIS_TYPE":0,"CLASSIFICATION_TYPE":"U","NORAD_CAT_ID":50472,"ELEMENT_SET_NO":999,"REV_AT_EPOCH":19113,"BSTAR":0.00038273,"MEAN_MOTION_DOT":1.61e-6,"MEAN_MOTION_DDOT":0},{"OBJECT_NAME":"ONEWEB-0393","OBJECT_ID":"2021-132E","EPOCH":"2025-11-24T06:05:34.823328","MEAN_MOTION":13.17650915,"ECCENTRICITY":0.0001651,"INCLINATION":87.9136,"RA_OF_ASC_NODE":46.6077,"ARG_OF_PERICENTER":108.0375,"MEAN_ANOMALY":252.0936,"EPHEMERIS_TYPE":0,"CLASSIFICATION_TYPE":"U","NORAD_CAT_ID":50473,"ELEMENT_SET_NO":999,"REV_AT_EPOCH":19112,"BSTAR":0.00021125,"MEAN_MOTION_DOT":9.5e-7,"MEAN_MOTION_DDOT":0},{"OBJECT_NAME":"ONEWEB-0394","OBJECT_ID":"2021-132F","EPOCH":"2025-11-24T03:43:47.025696","MEAN_MOTION":13.18685494,"ECCENTRICITY":0.0001791,"INCLINATION":87.9203,"RA_OF_ASC_NODE":16.1619,"ARG_OF_PERICENTER":105.0421,"MEAN_ANOMALY":255.0909,"EPHEMERIS_TYPE":0,"CLASSIFICATION_TYPE":"U","NORAD_CAT_ID":50474,"ELEMENT_SET_NO":999,"REV_AT_EPOCH":19457,"BSTAR":0.00036523,"MEAN_MOTION_DOT":1.57e-6,"MEAN_MOTION_DDOT":0},{"OBJECT_NAME":"ONEWEB-0395","OBJECT_ID":"2021-132G","EPOCH":"2025-11-24T07:26:41.986752","MEAN_MOTION":13.11418437,"ECCENTRICITY":0.000154,"INCLINATION":87.8861,"RA_OF_ASC_NODE":61.8751,"ARG_OF_PERICENTER":99.6269,"MEAN_ANOMALY":260.5033,"EPHEMERIS_TYPE":0,"CLASSIFICATION_TYPE":"U","NORAD_CAT_ID":50475,"ELEMENT_SET_NO":999,"REV_AT_EPOCH":18886,"BSTAR":2.8976e-6,"MEAN_MOTION_DOT":1.4e-7,"MEAN_MOTION_DDOT":0},{"OBJECT_NAME":"ONEWEB-0396","OBJECT_ID":"2021-132H","EPOCH":"2025-11-24T03:34:16.618080","MEAN_MOTION":13.18684753,"ECCENTRICITY":0.0001802,"INCLINATION":87.9203,"RA_OF_ASC_NODE":16.1754,"ARG_OF_PERICENTER":102.2815,"MEAN_ANOMALY":257.8519,"EPHEMERIS_TYPE":0,"CLASSIFICATION_TYPE":"U","NORAD_CAT_ID":50476,"ELEMENT_SET_NO":999,"REV_AT_EPOCH":19461,"BSTAR":0.00025406,"MEAN_MOTION_DOT":1.13e-6,"MEAN_MOTION_DDOT":0},{"OBJECT_NAME":"ONEWEB-0397","OBJECT_ID":"2021-132J","EPOCH":"2025-11-24T03:55:40.300896","MEAN_MOTION":13.18685544,"ECCENTRICITY":0.0001864,"INCLINATION":87.9201,"RA_OF_ASC_NODE":16.1728,"ARG_OF_PERICENTER":105.7565,"MEAN_ANOMALY":254.3773,"EPHEMERIS_TYPE":0,"CLASSIFICATION_TYPE":"U","NORAD_CAT_ID":50477,"ELEMENT_SET_NO":999,"REV_AT_EPOCH":19459,"BSTAR":0.00024261,"MEAN_MOTION_DOT":1.09e-6,"MEAN_MOTION_DDOT":0},{"OBJECT_NAME":"ONEWEB-0398","OBJECT_ID":"2021-132K","EPOCH":"2025-11-24T08:30:10.764000","MEAN_MOTION":13.11414163,"ECCENTRICITY":0.0001602,"INCLINATION":87.8873,"RA_OF_ASC_NODE":61.8379,"ARG_OF_PERICENTER":94.9075,"MEAN_ANOMALY":265.2235,"EPHEMERIS_TYPE":0,"CLASSIFICATION_TYPE":"U","NORAD_CAT_ID":50478,"ELEMENT_SET_NO":999,"REV_AT_EPOCH":18876,"BSTAR":-0.00047919,"MEAN_MOTION_DOT":-1.57e-6,"MEAN_MOTION_DDOT":0},{"OBJECT_NAME":"ONEWEB-0399","OBJECT_ID":"2021-132L","EPOCH":"2025-11-24T08:10:39.840960","MEAN_MOTION":13.11415336,"ECCENTRICITY":0.0001623,"INCLINATION":87.8859,"RA_OF_ASC_NODE":61.856,"ARG_OF_PERICENTER":125.1122,"MEAN_ANOMALY":235.0158,"EPHEMERIS_TYPE":0,"CLASSIFICATION_TYPE":"U","NORAD_CAT_ID":50479,"ELEMENT_SET_NO":999,"REV_AT_EPOCH":18875,"BSTAR":0.0014244,"MEAN_MOTION_DOT":5.18e-6,"MEAN_MOTION_DDOT":0},{"OBJECT_NAME":"ONEWEB-0400","OBJECT_ID":"2021-132M","EPOCH":"2025-11-24T03:24:46.981152","MEAN_MOTION":13.18685381,"ECCENTRICITY":0.0001825,"INCLINATION":87.9203,"RA_OF_ASC_NODE":16.1671,"ARG_OF_PERICENTER":95.8171,"MEAN_ANOMALY":264.3169,"EPHEMERIS_TYPE":0,"CLASSIFICATION_TYPE":"U","NORAD_CAT_ID":50480,"ELEMENT_SET_NO":999,"REV_AT_EPOCH":19458,"BSTAR":0.00023481,"MEAN_MOTION_DOT":1.05e-6,"MEAN_MOTION_DDOT":0},{"OBJECT_NAME":"ONEWEB-0401","OBJECT_ID":"2021-132N","EPOCH":"2025-11-24T09:56:41.332992","MEAN_MOTION":13.18685412,"ECCENTRICITY":0.0001981,"INCLINATION":87.9199,"RA_OF_ASC_NODE":16.1094,"ARG_OF_PERICENTER":101.9157,"MEAN_ANOMALY":258.2197,"EPHEMERIS_TYPE":0,"CLASSIFICATION_TYPE":"U","NORAD_CAT_ID":50481,"ELEMENT_SET_NO":999,"REV_AT_EPOCH":19462,"BSTAR":-0.00084431,"MEAN_MOTION_DOT":-3.2e-6,"MEAN_MOTION_DDOT":0},{"OBJECT_NAME":"ONEWEB-0402","OBJECT_ID":"2021-132P","EPOCH":"2025-11-24T03:36:39.220416","MEAN_MOTION":13.18684591,"ECCENTRICITY":0.0002355,"INCLINATION":87.9201,"RA_OF_ASC_NODE":16.1547,"ARG_OF_PERICENTER":108.0997,"MEAN_ANOMALY":252.0392,"EPHEMERIS_TYPE":0,"CLASSIFICATION_TYPE":"U","NORAD_CAT_ID":50482,"ELEMENT_SET_NO":999,"REV_AT_EPOCH":19461,"BSTAR":0.00017782,"MEAN_MOTION_DOT":8.3e-7,"MEAN_MOTION_DDOT":0},{"OBJECT_NAME":"ONEWEB-0403","OBJECT_ID":"2021-132Q","EPOCH":"2025-11-24T09:40:03.758592","MEAN_MOTION":13.18684932,"ECCENTRICITY":0.0001774,"INCLINATION":87.92,"RA_OF_ASC_NODE":16.1255,"ARG_OF_PERICENTER":99.1246,"MEAN_ANOMALY":261.0086,"EPHEMERIS_TYPE":0,"CLASSIFICATION_TYPE":"U","NORAD_CAT_ID":50483,"ELEMENT_SET_NO":999,"REV_AT_EPOCH":19460,"BSTAR":-0.00018329,"MEAN_MOTION_DOT":-5.9e-7,"MEAN_MOTION_DDOT":0},{"OBJECT_NAME":"ONEWEB-0404","OBJECT_ID":"2021-132R","EPOCH":"2025-11-24T07:43:47.800128","MEAN_MOTION":13.11418714,"ECCENTRICITY":0.0001708,"INCLINATION":87.8862,"RA_OF_ASC_NODE":61.8685,"ARG_OF_PERICENTER":113.284,"MEAN_ANOMALY":246.8468,"EPHEMERIS_TYPE":0,"CLASSIFICATION_TYPE":"U","NORAD_CAT_ID":50484,"ELEMENT_SET_NO":999,"REV_AT_EPOCH":18884,"BSTAR":0.0017484,"MEAN_MOTION_DOT":6.32e-6,"MEAN_MOTION_DDOT":0},{"OBJECT_NAME":"ONEWEB-0405","OBJECT_ID":"2021-132S","EPOCH":"2025-11-24T10:01:26.130720","MEAN_MOTION":13.18689058,"ECCENTRICITY":0.0001972,"INCLINATION":87.92,"RA_OF_ASC_NODE":16.1071,"ARG_OF_PERICENTER":106.8933,"MEAN_ANOMALY":253.2415,"EPHEMERIS_TYPE":0,"CLASSIFICATION_TYPE":"U","NORAD_CAT_ID":50485,"ELEMENT_SET_NO":999,"REV_AT_EPOCH":19500,"BSTAR":0.00017111,"MEAN_MOTION_DOT":8.0e-7,"MEAN_MOTION_DDOT":0},{"OBJECT_NAME":"ONEWEB-0406","OBJECT_ID":"2021-132T","EPOCH":"2025-11-24T04:19:24.698208","MEAN_MOTION":13.18684596,"ECCENTRICITY":0.000139,"INCLINATION":87.9203,"RA_OF_ASC_NODE":16.1786,"ARG_OF_PERICENTER":94.2459,"MEAN_ANOMALY":265.8832,"EPHEMERIS_TYPE":0,"CLASSIFICATION_TYPE":"U","NORAD_CAT_ID":50486,"ELEMENT_SET_NO":999,"REV_AT_EPOCH":19460,"BSTAR":0.00021029,"MEAN_MOTION_DOT":9.6e-7,"MEAN_MOTION_DDOT":0},{"OBJECT_NAME":"ONEWEB-0407","OBJECT_ID":"2021-132U","EPOCH":"2025-11-24T09:37:41.373984","MEAN_MOTION":13.18685487,"ECCENTRICITY":0.0002008,"INCLINATION":87.92,"RA_OF_ASC_NODE":16.1184,"ARG_OF_PERICENTER":98.3118,"MEAN_ANOMALY":261.8242,"EPHEMERIS_TYPE":0,"CLASSIFICATION_TYPE":"U","NORAD_CAT_ID":50487,"ELEMENT_SET_NO":999,"REV_AT_EPOCH":19457,"BSTAR":-0.00088677,"MEAN_MOTION_DOT":-3.37e-6,"MEAN_MOTION_DDOT":0},{"OBJECT_NAME":"ONEWEB-0409","OBJECT_ID":"2021-132V","EPOCH":"2025-11-24T07:41:21.952608","MEAN_MOTION":13.11419254,"ECCENTRICITY":0.0001336,"INCLINATION":87.8878,"RA_OF_ASC_NODE":61.8342,"ARG_OF_PERICENTER":104.1653,"MEAN_ANOMALY":255.9624,"EPHEMERIS_TYPE":0,"CLASSIFICATION_TYPE":"U","NORAD_CAT_ID":50488,"ELEMENT_SET_NO":999,"REV_AT_EPOCH":18873,"BSTAR":0.00082697,"MEAN_MOTION_DOT":3.06e-6,"MEAN_MOTION_DDOT":0}]
