ONEWEB-0392             
1 50472U 21132D   25328.28072912  .00000161  00000+0  38273-3 0  9991
2 50472  87.9133  46.5804 0001534 113.7087 246.4206 13.17650043191137
ONEWEB-0393             
1 50473U 21132E   25328.25387527  .00000095  00000+0  21125-3 0  9994
2 50473  87.9136  46.6077 0001651 108.0375 252.0936 13.17650915191121
ONEWEB-0394             
1 50474U 21132F   25328.15540539  .00000157  00000+0  36523-3 0  9995
2 50474  87.9203  16.1619 0001791 105.0421 255.0909 13.18685494194571
ONEWEB-0395             
1 50475U 21132G   25328.31020818  .00000014  00000+0  28976-5 0  9994
2 50475  87.8861  61.8751 0001540  99.6269 260.5033 13.11418437188863
ONEWEB-0396             
1 50476U 21132H   25328.14880345  .00000113  00000+0  25406-3 0  9998
2 50476  87.9203  16.1754 0001802 102.2815 257.8519 13.18684753194611
ONEWEB-0397             
1 50477U 21132J   25328.16366089  .00000109  00000+0  24261-3 0  9998
2 50477  87.9201  16.1728 0001864 105.7565 254.3773 13.18685544194599
ONEWEB-0398             
1 50478U 21132K   25328.35429125 -.00000157  00000+0 -47919-3 0  9991
2 50478  87.8873  61.8379 0001602  94.9075 265.2235 13.11414163188764
ONEWEB-0399             
1 50479U 21132L   25328.34073890  .00000518  00000+0  14244-2 0  9998
2 50479  87.8859  61.8560 0001623 125.1122 235.0158 13.11415336188755
ONEWEB-0400             
1 50480U 21132M   25328.14221043  .00000105  00000+0  23481-3 0  9999
2 50480  87.9203  16.1671 0001825  95.8171 264.3169 13.18685381194589
ONEWEB-0401             
1 50481U 21132N   25328.41436728 -.00000320  00000+0 -84431-3 0  9991
2 50481  87.9199  16.1094 0001981 101.9157 258.2197 13.18685412194622
ONEWEB-0402             
1 50482U 21132P   25328.15045394  .00000083  00000+0  17782-3 0  9997
2 50482  87.9201  16.1547 0002355 108.0997 252.0392 13.18684591194611
ONEWEB-0403             
1 50483U 21132Q   25328.40282128 -.00000059  00000+0 -18329-3 0  9997
2 50483  87.9200  16.1255 0001774  99.1246 261.0086 13.18684932194606
ONEWEB-0404             
1 50484U 21132R   25328.32208102  .00000632  00000+0  17484-2 0  9994
2 50484  87.8862  61.8685 0001708 113.2840 246.8468 13.11418714188849
ONEWEB-0405             
1 50485U 21132S   25328.41766355  .00000080  00000+0  17111-3 0  9999
2 50485  87.9200  16.1071 0001972 106.8933 253.2415 13.18689058195001
ONEWEB-0406             
1 50486U 21132T   25328.18014697  .00000096  00000+0  21029-3 0  9999
2 50486  87.9203  16.1786 0001390  94.2459 265.8832 13.18684596194604
ONEWEB-0407             
1 50487U 21132U   25328.40117331 -.00000337  00000+0 -88677-3 0  9996
2 50487  87.9200  16.1184 0002008  98.3118 261.8242 13.18685487194575
ONEWEB-0409             
1 50488U 21132V   25328.32039297  .00000306  00000+0  82697-3 0  9992
2 50488  87.8878  61.8342 0001336 104.1653 255.9624 13.11419254188731
